STARLINK-33675          
1 63423U 25065AA  26068.81925485  .00019898  00000+0  73134-3 0  9995
2 63423  43.0036 105.9498 0001705 275.2064  84.8593 15.27549495 52860
HERMES-3                
1 63835U 25052BR  26068.93751242  .00020316  00000+0  69958-3 0  9995
2 63835  97.3987 324.6131 0007993 112.9583 247.2502 15.30039785 54863
